AQUA                    
1 27424U 02022A   26079.90158448  .00000805  00000+0  17033-3 0  9997
2 27424  98.4195  47.4723 0000811 113.7632 269.5565 14.62001336270370
CZ-4B R/B               
1 27432U 02024C   26079.91696270  .00000033  00000+0  40037-4 0  9993
2 27432  98.8813 133.2658 0049900 352.3736 181.2523 14.14549588230822
MIDORI II (ADEOS-II)    
1 27597U 02056A   26079.86442207  .00000257  00000+0  11876-3 0  9999
2 27597  98.7789  38.4206 0001124  28.4412 331.6831 14.29293116211896
H-2A R/B                
1 27601U 02056E   26079.87201461  .00000232  00000+0  95576-4 0  9994
2 27601  98.3223  39.8132 0071098 127.6479 287.3113 14.33767641215715
CZ-4B R/B               
1 28059U 03049C   26079.93649096  .00000302  00000+0  80768-4 0  9997
2 28059  98.6889  75.2834 0047800 196.0799 163.8883 14.55029956188238
CZ-2C R/B               
1 28222U 04012C   26079.15822986  .00041551  00000+0  41047-3 0  9992
2 28222  97.7200 145.4513 0012937 266.6030  93.3749 15.65689873205911
SL-16 R/B               
1 28353U 04021B   26079.77103478 -.00000160  00000+0 -58358-4 0  9990
2 28353  70.9998 209.2369 0004593 355.9383   4.1702 14.14593505124405
CZ-4B R/B               
1 28415U 04035C   26079.96810889  .00007497  00000+0  26335-3 0  9993
2 28415  97.3473 114.0756 0030096 289.5404  70.2587 15.29243951181638
CZ-2C R/B               
1 28480U 04046B   26079.70454635  .00000124  00000+0  60703-4 0  9990
2 28480  98.1980 354.0025 0140397 122.0427 239.4481 14.26995708110071
ARIANE 5 R/B            
1 28499U 04049H   26079.95044811  .00000634  00000+0  76637-4 0  9990
2 28499  98.2643 248.8303 0083203 315.1907  44.2607 14.85284921147465
CZ-2D R/B               
1 28738U 05024B   26079.28897950  .00029756  00000+0  35450-3 0  9999
2 28738  97.3582  94.8309 0003983  16.3856 343.7530 15.61045673141435
ALOS (DAICHI)           
1 28931U 06002A   26079.87162480  .00001147  00000+0  20030-3 0  9991
2 28931  98.1238  35.7724 0000702  85.8225 274.3061 14.69842990 75123
